GLOBALSTAR M067 [+]     
1 32263U 07048A   23244.53041205 -.00000058  00000+0  28874-3 0  9995
2 32263  51.9719 151.4373 0001435  35.8222 137.9760 12.40630439728225
GLOBALSTAR M070 [+]     
1 32264U 07048B   23244.52690547 -.00000066  00000+0  21109-3 0  9997
2 32264  51.9768 322.7930 0000998 110.4842 262.9537 12.62277225730995
GLOBALSTAR M066 [+]     
1 32265U 07048C   23244.59934227 -.00000094  00000+0  55885-4 0  9991
2 32265  51.9662 184.6535 0000825 313.3398 224.1263 12.62262916733264
GLOBALSTAR M068 [-]     
1 32266U 07048D   23244.43931194 -.00000052  00000+0  29061-3 0  9995
2 32266  51.9879 138.0426 0001144  99.5177  71.3341 12.62765390734837
GLOBALSTAR M074 [+]     
1 37189U 10054B   23244.49972412 -.00000073  00000+0  17278-3 0  9999
2 37189  52.0037 332.1872 0000650 104.9037 269.3170 12.62269276594388
GLOBALSTAR M076 [+]     
1 37190U 10054C   23244.52563334 -.00000085  00000+0  10712-3 0  9993
2 37190  52.0049 332.2177 0000700  53.0764 320.1810 12.62260407594103
GLOBALSTAR M077 [+]     
1 37191U 10054D   23244.54316771 -.00000071  00000+0  18449-3 0  9997
2 37191  52.0069 288.8349 0000487 107.7045  43.8214 12.62260538594476
